COSMOS 2419 (714)       
1 28915U 05050A   16204.83001205 -.00000001  00000-0  00000-0 0  9999
2 28915  65.3357  76.9611 0016132 355.0522 127.8635  2.13110910 82315
COSMOS 2425 (716)       
1 29670U 06062A   16204.91951426 -.00000025  00000-0  10000-3 0  9990
2 29670  65.6181 315.9549 0019965 347.6123 260.8104  2.13104963 74512
COSMOS 2426 (717)       
1 29671U 06062B   16204.72688753 -.00000025  00000-0  10000-3 0  9990
2 29671  65.6347 316.0431 0018458 162.7568 158.5409  2.13102999 74512
COSMOS 2424 (715)       
1 29672U 06062C   16205.32294182 -.00000026  00000-0  10000-3 0  9998
2 29672  65.6195 315.9508 0017914 162.1618  72.6399  2.13102394 74527
COSMOS 2433 (720)       
1 32275U 07052A   16205.11879306 -.00000003  00000-0  10000-3 0  9990
2 32275  65.3531  76.7230 0001536 291.4340 301.9201  2.13104729 68039
COSMOS 2432 (719)       
1 32276U 07052B   16204.78353404 -.00000001  00000-0  10000-3 0  9997
2 32276  65.3653  76.7995 0012210 343.3254 306.5785  2.13104272 68025
COSMOS 2434 (721)       
1 32393U 07065A   16205.42216564 -.00000026  00000-0  00000+0 0  9990
2 32393  65.2348 315.2431 0005369 119.5818 238.2779  2.13102935 66742
COSMOS 2436 (723)       
1 32395U 07065C   16204.47718178 -.00000025  00000-0  10000-3 0  9998
2 32395  65.2496 315.3187 0015649 357.2033  87.7205  2.13102981 66662
COSMOS 2443 (725)       
1 33379U 08046B   16205.42656603 -.00000005  00000-0  10000-3 0  9999
2 33379  65.2817  76.1254 0016543 181.7309 192.3919  2.13101244 60917
COSMOS 2456 (730)       
1 36111U 09070A   16205.17592703  .00000082  00000-0  00000+0 0  9995
2 36111  64.1830 194.8324 0006496 295.9391  42.7263  2.13102984 51404
COSMOS 2457 (733)       
1 36112U 09070B   16205.13792601  .00000082  00000-0  00000+0 0  9991
2 36112  64.1649 194.7598 0006835 190.5155 249.0786  2.13101656 51418
COSMOS 2458 (734)       
1 36113U 09070C   16205.38951094  .00000083  00000-0  10000-3 0  9998
2 36113  64.1703 194.7572 0002750 291.5099  28.6759  2.13102032 51413
COSMOS 2459 (731)       
1 36400U 10007A   16205.24994801 -.00000004  00000-0  10000-3 0  9991
2 36400  65.2606  75.8655 0028830 355.4922 203.5317  2.13102377 49760
COSMOS 2461 (735)       
1 36401U 10007B   16205.24288108 -.00000004  00000-0  10000-3 0  9998
2 36401  65.2543  75.8455 0007649  67.0686  37.1175  2.13102520 49760
COSMOS 2460 (732)       
1 36402U 10007C   16205.25027350 -.00000004  00000-0  10000-3 0  9990
2 36402  65.2446  75.8214 0001563  49.9286 101.7178  2.13101889 49768
COSMOS 2465 (737)       
1 37138U 10041B   16204.54382581 -.00000025  00000-0  00000+0 0  9994
2 37138  64.8362 315.4281 0036400 169.5851 278.1050  2.13093939 45826
COSMOS 2464 (736)       
1 37139U 10041C   16204.69188896 -.00000025  00000-0  00000-0 0  9995
2 37139  64.8431 315.4191 0021698  15.6839   9.6306  2.13102660 45838
COSMOS 2471 (701K)      
1 37372U 11009A   16205.11258066 -.00000004  00000-0  00000+0 0  9990
2 37372  65.2416  75.7760 0006688 234.9311 303.7888  2.13102780 42031
COSMOS 2474 (742)       
1 37829U 11055A   16205.42234242  .00000084  00000-0  00000+0 0  9999
2 37829  64.5076 195.2513 0010830 254.2414 134.7277  2.13102007 37411
COSMOS 2476 (744)       
1 37867U 11064A   16205.09702068  .00000083  00000-0  00000+0 0  9999
2 37867  64.4876 195.3421 0019770 248.5706 296.6737  2.13102091 36759
COSMOS 2477 (745)       
1 37868U 11064B   16204.69458564  .00000081  00000-0  00000+0 0  9992
2 37868  64.4954 195.3975 0017779 250.0106 165.7813  2.13101941 36709
COSMOS 2475 (743)       
1 37869U 11064C   16204.67902545  .00000081  00000-0  00000-0 0  9995
2 37869  64.5036 195.3868 0023129 273.4517  86.5508  2.13102146 36714
COSMOS 2485 (747)       
1 39155U 13019A   16204.71268929  .00000081  00000-0  00000+0 0  9992
2 39155  64.6573 195.3135 0019970 243.7656  51.7515  2.13102143 25213
COSMOS 2492 (754)       
1 39620U 14012A   16204.83622222 -.00000002  00000-0  10000-3 0  9995
2 39620  65.1309  75.8188 0015129 338.3728  85.2440  2.13103633 18177
COSMOS 2500 (755)       
1 40001U 14032A   16205.16949774 -.00000004  00000-0  00000+0 0  9990
2 40001  65.0731  75.8297 0004675 198.4501 344.5357  2.13103042 16393
COSMOS 2501 (702K)      
1 40315U 14075A   16204.74129163 -.00000027  00000-0  00000+0 0  9995
2 40315  64.6072 316.8640 0017412 230.7899 144.7383  2.13101663 12793
COSMOS 2514 (751)       
1 41330U 16008A   16204.83313531 -.00000003  00000-0  00000-0 0  9990
2 41330  64.8719  76.0675 0007712 212.8236 251.2391  2.13103607  3559
COSMOS 2516 (753)       
1 41554U 16032A   16204.47718178 -.00000026  00000-0  00000-0 0  9996
2 41554  64.7885 316.5576 0011523 216.4079 229.2491  2.13101570  1159
